[{"OBJECT_NAME":"ONEWEB-0186","OBJECT_ID":"2021-031V","EPOCH":"2025-10-19T21:20:46.092768","MEAN_MOTION":13.14501224,"ECCENTRICITY":0.00019523,"INCLINATION":87.9042,"RA_OF_ASC_NODE":337.554,"ARG_OF_PERICENTER":94.6136,"MEAN_ANOMALY":265.5217,"EPHEMERIS_TYPE":0,"CLASSIFICATION_TYPE":"U","NORAD_CAT_ID":48229,"ELEMENT_SET_NO":999,"REV_AT_EPOCH":21681,"BSTAR":0.00044382284,"MEAN_MOTION_DOT":1.77e-6,"MEAN_MOTION_DDOT":0},{"OBJECT_NAME":"ONEWEB-0181","OBJECT_ID":"2021-031W","EPOCH":"2025-10-19T20:48:47.696544","MEAN_MOTION":13.14502992,"ECCENTRICITY":0.00020701,"INCLINATION":87.9023,"RA_OF_ASC_NODE":337.6219,"ARG_OF_PERICENTER":97.9458,"MEAN_ANOMALY":262.1907,"EPHEMERIS_TYPE":0,"CLASSIFICATION_TYPE":"U","NORAD_CAT_ID":48230,"ELEMENT_SET_NO":999,"REV_AT_EPOCH":21666,"BSTAR":-6.3017121e-5,"MEAN_MOTION_DOT":-1.1e-7,"MEAN_MOTION_DDOT":0},{"OBJECT_NAME":"ONEWEB-0188","OBJECT_ID":"2021-031X","EPOCH":"2025-10-19T19:53:58.331040","MEAN_MOTION":13.14503263,"ECCENTRICITY":0.00018587,"INCLINATION":87.9027,"RA_OF_ASC_NODE":337.6247,"ARG_OF_PERICENTER":95.2485,"MEAN_ANOMALY":264.8857,"EPHEMERIS_TYPE":0,"CLASSIFICATION_TYPE":"U","NORAD_CAT_ID":48231,"ELEMENT_SET_NO":999,"REV_AT_EPOCH":21656,"BSTAR":3.4470633e-5,"MEAN_MOTION_DOT":2.6e-7,"MEAN_MOTION_DDOT":0},{"OBJECT_NAME":"ONEWEB-0220","OBJECT_ID":"2021-031Y","EPOCH":"2025-10-19T20:51:03.396384","MEAN_MOTION":13.14504524,"ECCENTRICITY":0.00020033,"INCLINATION":87.9038,"RA_OF_ASC_NODE":337.5583,"ARG_OF_PERICENTER":91.4255,"MEAN_ANOMALY":268.7104,"EPHEMERIS_TYPE":0,"CLASSIFICATION_TYPE":"U","NORAD_CAT_ID":48232,"ELEMENT_SET_NO":999,"REV_AT_EPOCH":21683,"BSTAR":0.00011459796,"MEAN_MOTION_DOT":5.5e-7,"MEAN_MOTION_DDOT":0},{"OBJECT_NAME":"ONEWEB-0165","OBJECT_ID":"2021-031Z","EPOCH":"2025-10-19T19:42:34.430112","MEAN_MOTION":13.14502791,"ECCENTRICITY":0.0002034,"INCLINATION":87.9022,"RA_OF_ASC_NODE":337.6024,"ARG_OF_PERICENTER":94.6035,"MEAN_ANOMALY":265.5328,"EPHEMERIS_TYPE":0,"CLASSIFICATION_TYPE":"U","NORAD_CAT_ID":48233,"ELEMENT_SET_NO":999,"REV_AT_EPOCH":21678,"BSTAR":0.00040087155,"MEAN_MOTION_DOT":1.61e-6,"MEAN_MOTION_DDOT":0},{"OBJECT_NAME":"ONEWEB-0199","OBJECT_ID":"2021-031AA","EPOCH":"2025-10-19T21:09:19.797696","MEAN_MOTION":13.14503289,"ECCENTRICITY":0.00017385,"INCLINATION":87.9031,"RA_OF_ASC_NODE":337.5601,"ARG_OF_PERICENTER":100.4742,"MEAN_ANOMALY":259.6584,"EPHEMERIS_TYPE":0,"CLASSIFICATION_TYPE":"U","NORAD_CAT_ID":48234,"ELEMENT_SET_NO":999,"REV_AT_EPOCH":21669,"BSTAR":0.00040306599,"MEAN_MOTION_DOT":1.62e-6,"MEAN_MOTION_DDOT":0},{"OBJECT_NAME":"ONEWEB-0203","OBJECT_ID":"2021-031AB","EPOCH":"2025-10-19T20:55:38.515584","MEAN_MOTION":13.14502951,"ECCENTRICITY":0.00019553,"INCLINATION":87.9031,"RA_OF_ASC_NODE":337.5632,"ARG_OF_PERICENTER":105.4219,"MEAN_ANOMALY":254.7127,"EPHEMERIS_TYPE":0,"CLASSIFICATION_TYPE":"U","NORAD_CAT_ID":48235,"ELEMENT_SET_NO":999,"REV_AT_EPOCH":21670,"BSTAR":0.00029490978,"MEAN_MOTION_DOT":1.22e-6,"MEAN_MOTION_DDOT":0},{"OBJECT_NAME":"ONEWEB-0197","OBJECT_ID":"2021-031AC","EPOCH":"2025-10-19T20:18:53.795808","MEAN_MOTION":13.14503837,"ECCENTRICITY":0.00017261,"INCLINATION":87.9033,"RA_OF_ASC_NODE":337.5664,"ARG_OF_PERICENTER":87.0711,"MEAN_ANOMALY":273.0616,"EPHEMERIS_TYPE":0,"CLASSIFICATION_TYPE":"U","NORAD_CAT_ID":48236,"ELEMENT_SET_NO":999,"REV_AT_EPOCH":21661,"BSTAR":-0.00038683479,"MEAN_MOTION_DOT":-1.31e-6,"MEAN_MOTION_DDOT":0},{"OBJECT_NAME":"ONEWEB-0194","OBJECT_ID":"2021-031AD","EPOCH":"2025-10-19T19:49:25.415040","MEAN_MOTION":13.14502708,"ECCENTRICITY":0.0001719,"INCLINATION":87.9036,"RA_OF_ASC_NODE":337.5867,"ARG_OF_PERICENTER":103.3045,"MEAN_ANOMALY":256.8276,"EPHEMERIS_TYPE":0,"CLASSIFICATION_TYPE":"U","NORAD_CAT_ID":48237,"ELEMENT_SET_NO":999,"REV_AT_EPOCH":21678,"BSTAR":0.00023308754,"MEAN_MOTION_DOT":9.9e-7,"MEAN_MOTION_DDOT":0},{"OBJECT_NAME":"ONEWEB-0193","OBJECT_ID":"2021-031AE","EPOCH":"2025-10-19T20:12:13.435488","MEAN_MOTION":13.14508485,"ECCENTRICITY":0.00015696,"INCLINATION":87.9021,"RA_OF_ASC_NODE":337.5796,"ARG_OF_PERICENTER":107.8895,"MEAN_ANOMALY":252.2406,"EPHEMERIS_TYPE":0,"CLASSIFICATION_TYPE":"U","NORAD_CAT_ID":48238,"ELEMENT_SET_NO":999,"REV_AT_EPOCH":21673,"BSTAR":-0.0037554172,"MEAN_MOTION_DOT":-1.379e-5,"MEAN_MOTION_DDOT":0},{"OBJECT_NAME":"ONEWEB-0191","OBJECT_ID":"2021-031AF","EPOCH":"2025-10-19T20:28:13.220256","MEAN_MOTION":13.14503993,"ECCENTRICITY":0.00018016,"INCLINATION":87.9042,"RA_OF_ASC_NODE":337.5622,"ARG_OF_PERICENTER":97.3623,"MEAN_ANOMALY":262.7712,"EPHEMERIS_TYPE":0,"CLASSIFICATION_TYPE":"U","NORAD_CAT_ID":48239,"ELEMENT_SET_NO":999,"REV_AT_EPOCH":21659,"BSTAR":-0.0004165408,"MEAN_MOTION_DOT":-1.42e-6,"MEAN_MOTION_DDOT":0},{"OBJECT_NAME":"ONEWEB-0195","OBJECT_ID":"2021-031AG","EPOCH":"2025-10-19T03:28:38.412192","MEAN_MOTION":13.14501595,"ECCENTRICITY":0.00022663,"INCLINATION":87.9045,"RA_OF_ASC_NODE":337.6989,"ARG_OF_PERICENTER":98.8875,"MEAN_ANOMALY":261.2511,"EPHEMERIS_TYPE":0,"CLASSIFICATION_TYPE":"U","NORAD_CAT_ID":48240,"ELEMENT_SET_NO":999,"REV_AT_EPOCH":21648,"BSTAR":-0.00011967569,"MEAN_MOTION_DOT":-3.2e-7,"MEAN_MOTION_DDOT":0},{"OBJECT_NAME":"ONEWEB-0201","OBJECT_ID":"2021-031AH","EPOCH":"2025-10-19T19:38:12.516288","MEAN_MOTION":13.14503271,"ECCENTRICITY":0.00020129,"INCLINATION":87.9025,"RA_OF_ASC_NODE":337.6129,"ARG_OF_PERICENTER":88.621,"MEAN_ANOMALY":271.5151,"EPHEMERIS_TYPE":0,"CLASSIFICATION_TYPE":"U","NORAD_CAT_ID":48241,"ELEMENT_SET_NO":999,"REV_AT_EPOCH":21680,"BSTAR":0.00062806871,"MEAN_MOTION_DOT":2.46e-6,"MEAN_MOTION_DDOT":0},{"OBJECT_NAME":"ONEWEB-0207","OBJECT_ID":"2021-031AJ","EPOCH":"2025-10-19T20:59:03.842592","MEAN_MOTION":13.14502883,"ECCENTRICITY":0.00018497,"INCLINATION":87.903,"RA_OF_ASC_NODE":337.5584,"ARG_OF_PERICENTER":90.2646,"MEAN_ANOMALY":269.8696,"EPHEMERIS_TYPE":0,"CLASSIFICATION_TYPE":"U","NORAD_CAT_ID":48242,"ELEMENT_SET_NO":999,"REV_AT_EPOCH":21672,"BSTAR":0.00050291223,"MEAN_MOTION_DOT":1.99e-6,"MEAN_MOTION_DDOT":0},{"OBJECT_NAME":"ONEWEB-0208","OBJECT_ID":"2021-031AK","EPOCH":"2025-10-19T09:35:08.440800","MEAN_MOTION":13.14503782,"ECCENTRICITY":0.00020351,"INCLINATION":87.9037,"RA_OF_ASC_NODE":337.6688,"ARG_OF_PERICENTER":98.3887,"MEAN_ANOMALY":261.7473,"EPHEMERIS_TYPE":0,"CLASSIFICATION_TYPE":"U","NORAD_CAT_ID":48243,"ELEMENT_SET_NO":999,"REV_AT_EPOCH":21667,"BSTAR":-0.00049938945,"MEAN_MOTION_DOT":-1.72e-6,"MEAN_MOTION_DDOT":0},{"OBJECT_NAME":"ONEWEB-0200","OBJECT_ID":"2021-031AL","EPOCH":"2025-10-19T19:40:17.302080","MEAN_MOTION":13.14502296,"ECCENTRICITY":0.00019601,"INCLINATION":87.9036,"RA_OF_ASC_NODE":337.5752,"ARG_OF_PERICENTER":96.6526,"MEAN_ANOMALY":263.4827,"EPHEMERIS_TYPE":0,"CLASSIFICATION_TYPE":"U","NORAD_CAT_ID":48244,"ELEMENT_SET_NO":999,"REV_AT_EPOCH":21665,"BSTAR":0.000335548,"MEAN_MOTION_DOT":1.37e-6,"MEAN_MOTION_DDOT":0}]
