ONEWEB-0186             
1 48229U 21031V   25292.88942237  .00000177  00000+0  44382-3 0  9993
2 48229  87.9042 337.5540 0001952  94.6136 265.5217 13.14501224216819
ONEWEB-0181             
1 48230U 21031W   25292.86721871 -.00000011  00000+0 -63017-4 0  9998
2 48230  87.9023 337.6219 0002070  97.9458 262.1907 13.14502992216664
ONEWEB-0188             
1 48231U 21031X   25292.82914735  .00000026  00000+0  34471-4 0  9994
2 48231  87.9027 337.6247 0001858  95.2485 264.8857 13.14503263216568
ONEWEB-0220             
1 48232U 21031Y   25292.86878931  .00000055  00000+0  11460-3 0  9990
2 48232  87.9038 337.5583 0002003  91.4255 268.7104 13.14504524216838
ONEWEB-0165             
1 48233U 21031Z   25292.82123183  .00000161  00000+0  40087-3 0  9994
2 48233  87.9022 337.6024 0002034  94.6035 265.5328 13.14502791216789
ONEWEB-0199             
1 48234U 21031AA  25292.88147914  .00000162  00000+0  40307-3 0  9995
2 48234  87.9031 337.5601 0001738 100.4742 259.6584 13.14503289216692
ONEWEB-0203             
1 48235U 21031AB  25292.87197356  .00000122  00000+0  29491-3 0  9997
2 48235  87.9031 337.5632 0001955 105.4219 254.7127 13.14502951216708
ONEWEB-0197             
1 48236U 21031AC  25292.84645597 -.00000131  00000+0 -38683-3 0  9995
2 48236  87.9033 337.5664 0001726  87.0711 273.0616 13.14503837216615
ONEWEB-0194             
1 48237U 21031AD  25292.82598860  .00000099  00000+0  23309-3 0  9994
2 48237  87.9036 337.5867 0001719 103.3045 256.8276 13.14502708216783
ONEWEB-0193             
1 48238U 21031AE  25292.84182217 -.00001379  00000+0 -37554-2 0  9992
2 48238  87.9021 337.5796 0001569 107.8895 252.2406 13.14508485216732
ONEWEB-0191             
1 48239U 21031AF  25292.85293079 -.00000142  00000+0 -41654-3 0  9997
2 48239  87.9042 337.5622 0001801  97.3623 262.7712 13.14503993216594
ONEWEB-0195             
1 48240U 21031AG  25292.14488903 -.00000032  00000+0 -11968-3 0  9996
2 48240  87.9045 337.6989 0002266  98.8875 261.2511 13.14501595216482
ONEWEB-0201             
1 48241U 21031AH  25292.81820042  .00000246  00000+0  62807-3 0  9998
2 48241  87.9025 337.6129 0002012  88.6210 271.5151 13.14503271216809
ONEWEB-0207             
1 48242U 21031AJ  25292.87435003  .00000199  00000+0  50291-3 0  9995
2 48242  87.9030 337.5584 0001849  90.2646 269.8696 13.14502883216722
ONEWEB-0208             
1 48243U 21031AK  25292.39940325 -.00000172  00000+0 -49939-3 0  9991
2 48243  87.9037 337.6688 0002035  98.3887 261.7473 13.14503782216677
ONEWEB-0200             
1 48244U 21031AL  25292.81964470  .00000137  00000+0  33555-3 0  9992
2 48244  87.9036 337.5752 0001960  96.6526 263.4827 13.14502296216654
